NORAD_CAT_ID,OBJECT_NAME,OBJECT_TYPE,EPOCH,MEAN_MOTION,ECCENTRICITY,INCLINATION,RA_OF_ASC_NODE,ARG_OF_PERICENTER,MEAN_ANOMALY,BSTAR,MEAN_MOTION_DOT,MEAN_MOTION_DDOT,TLE_LINE0,TLE_LINE1,TLE_LINE2,SEMIMAJOR_AXIS,PERIOD,APOGEE,PERIGEE,DECAYED
51812.0,STARLINK-3610,PAYLOAD,2022-10-30 11:11:45,15.08856817,0.000178,53.2178,73.8446,46.6078,313.5062,3.2959e-05,2.37e-06,0.0,0 STARLINK-3610,1 51812U 22017AW  22303.46649839  .00000237  00000-0  32959-4 0  9992,2 51812  53.2178  73.8446 0001780  46.6078 313.5062 15.08856817 38969,6917.829000000002,95.436,540.925,538.4630000000002,0.0
51812.0,STARLINK-3610,PAYLOAD,2022-10-30 15:57:54,15.08849766,0.0001844999999999,53.2176,72.9523,49.4395,310.6758,-7.3087e-05,-1.451e-05,0.0,0 STARLINK-3610,1 51812U 22017AW  22303.66521946 -.00001451  00000-0 -73087-4 0  9990,2 51812  53.2176  72.9523 0001845  49.4395 310.6758 15.08849766 38996,6917.851,95.437,540.992,538.439,0.0
51812.0,STARLINK-3610,PAYLOAD,2022-10-31 11:02:34,15.08828462,0.0001786,53.2187,69.3843,48.628,311.4865,-9.9688e-05,-1.874e-05,0.0,0 STARLINK-3610,1 51812U 22017AW  22304.46011817 -.00001874  00000-0 -99688-4 0  9994,2 51812  53.2187  69.3843 0001786  48.6280 311.4865 15.08828462 39114,6917.916,95.438,541.016,538.545,0.0
51812.0,STARLINK-3610,PAYLOAD,2022-11-01 07:42:34,15.08835288,0.0001998,53.2181,65.52,47.9914,312.1248,-8.8022e-06,-4.28e-06,0.0,0 STARLINK-3610,1 51812U 22017AW  22305.32123247 -.00000428  00000-0 -88022-5 0  9996,2 51812  53.2181  65.5200 0001998  47.9914 312.1248 15.08835288 39357,6917.895,95.438,541.1419999999998,538.378,0.0
51812.0,STARLINK-3610,PAYLOAD,2022-11-01 10:53:20,15.08837344,0.0001921999999999,53.2186,64.9258,51.8203,308.2962,7.3319000000000034e-06,-1.71e-06,0.0,0 STARLINK-3610,1 51812U 22017AW  22305.45371075 -.00000171  00000-0  73319-5 0  9991,2 51812  53.2186  64.9258 0001922  51.8203 308.2962 15.08837344 39264,6917.889,95.438,541.0830000000002,538.424,0.0
51812.0,STARLINK-3610,PAYLOAD,2022-11-01 17:14:52,15.08842926,0.0001906,53.2181,63.7361,53.5761,306.5407,5.7329e-05,6.24e-06,0.0,0 STARLINK-3610,1 51812U 22017AW  22305.71866626  .00000624  00000-0  57329-4 0  9995,2 51812  53.2181  63.7361 0001906  53.5761 306.5407 15.08842926 39303,6917.871,95.437,541.055,538.418,0.0
51812.0,STARLINK-3610,PAYLOAD,2022-11-02 13:54:54,15.08833764,0.0002159,53.2203,59.8731,25.2494,334.8603,6.8957e-05,8.09e-06,0.0,0 STARLINK-3610,1 51812U 22017AW  22306.57979409  .00000809  00000-0  68957-4 0  9998,2 51812  53.2203  59.8731 0002159  25.2494 334.8603 15.08833764 39543,6917.899,95.438,541.258,538.271,0.0
51812.0,STARLINK-3610,PAYLOAD,2022-11-03 02:38:00,15.0883264,0.0002069,53.2204,57.4945,29.7972,330.3137,-6.7883e-05,-1.368e-05,0.0,0 STARLINK-3610,1 51812U 22017AW  22307.10972246 -.00001368  00000-0 -67883-4 0  9990,2 51812  53.2204  57.4945 0002069  29.7972 330.3137 15.08832640 39629,6917.903,95.438,541.1990000000002,538.337,0.0
51812.0,STARLINK-3610,PAYLOAD,2022-11-03 08:59:31,15.0884434,0.0001904,53.2197,56.3035,40.368,319.7453,3.0161e-05,1.92e-06,0.0,0 STARLINK-3610,1 51812U 22017AW  22307.37467196  .00000192  00000-0  30161-4 0  9993,2 51812  53.2197  56.3035 0001904  40.3680 319.7453 15.08844340 39666,6917.8669999999975,95.437,541.049,538.415,0.0
51812.0,STARLINK-3610,PAYLOAD,2022-11-04 02:28:44,15.08858591,0.0002078,53.2216,53.0348,16.1598,343.9461,0.00018603,2.675e-05,0.0,0 STARLINK-3610,1 51812U 22017AW  22308.10329340  .00002675  00000-0  18603-3 0  9997,2 51812  53.2216  53.0348 0002078  16.1598 343.9461 15.08858591 39774,6917.824000000001,95.436,541.126,538.251,0.0
51812.0,STARLINK-3610,PAYLOAD,2022-11-04 08:50:17,15.088499,0.0001833,53.2192,51.8419,44.1738,315.94,0.00015932,2.249e-05,0.0,0 STARLINK-3610,1 51812U 22017AW  22308.36825576  .00002249  00000-0  15932-3 0  9996,2 51812  53.2192  51.8419 0001833  44.1738 315.9400 15.08849900 39818,6917.85,95.437,540.9830000000002,538.447,0.0
51812.0,STARLINK-3610,PAYLOAD,2022-11-04 13:36:26,15.08849751,0.0001974,53.2198,50.9517,39.7506,320.363,0.00011708,1.576e-05,0.0,0 STARLINK-3610,1 51812U 22017AW  22308.56697669  .00001576  00000-0  11708-3 0  9997,2 51812  53.2198  50.9517 0001974  39.7506 320.3630 15.08849751 39732,6917.851,95.437,541.081,538.35,0.0
51812.0,STARLINK-3610,PAYLOAD,2022-11-05 02:19:32,15.08842835,0.0002049,53.2197,48.5733,33.8107,326.3015,6.1142e-06,-1.91e-06,0.0,0 STARLINK-3610,1 51812U 22017AW  22309.09690349 -.00000191  00000-0  61142-5 0  9996,2 51812  53.2197  48.5733 0002049  33.8107 326.3015 15.08842835 39920,6917.871999999999,95.437,541.154,538.319,0.0
51812.0,STARLINK-3610,PAYLOAD,2022-11-05 10:16:29,15.08830278,0.0001989,53.2189,47.0849,43.9811,316.1339,-7.966100000000001e-05,-1.555e-05,0.0,0 STARLINK-3610,1 51812U 22017AW  22309.42811432 -.00001555  00000-0 -79661-4 0  9991,2 51812  53.2189  47.0849 0001989  43.9811 316.1339 15.08830278 39978,6917.91,95.438,541.151,538.399,0.0
51812.0,STARLINK-3610,PAYLOAD,2022-11-06 02:10:22,15.08813386,0.0001982,53.2198,44.1121,40.3939,319.72,-0.00024868,-4.241e-05,0.0,0 STARLINK-3610,1 51812U 22017AW  22310.09053379 -.00004241  00000-0 -24868-3 0  9997,2 51812  53.2198  44.1121 0001982  40.3939 319.7200 15.08813386 40074,6917.962,95.439,541.198,538.456,0.0
51812.0,STARLINK-3610,PAYLOAD,2022-11-06 11:42:39,15.08837442,0.0001947,53.2208,42.3283,31.9125,328.1985,-4.043e-05,-9.32e-06,0.0,0 STARLINK-3610,1 51812U 22017AW  22310.48795418 -.00000932  00000-0 -40430-4 0  9994,2 51812  53.2208  42.3283 0001947  31.9125 328.1985 15.08837442 40139,6917.888000000001,95.438,541.1,538.406,0.0
51812.0,STARLINK-3610,PAYLOAD,2022-11-07 09:58:04,15.08815903,0.0002088,53.2197,38.1655,35.1048,325.0082,-7.7225e-06,-4.11e-06,0.0,0 STARLINK-3610,1 51812U 22017AW  22311.41533423 -.00000411  00000-0 -77225-5 0  9999,2 51812  53.2197  38.1655 0002088  35.1048 325.0082 15.08815903 40276,6917.954000000002,95.439,541.264,538.375,0.0
51812.0,STARLINK-3610,PAYLOAD,2022-11-07 16:19:37,15.08817182,0.0001633,53.2192,36.9716,61.242,298.8736,5.1877e-05,5.37e-06,0.0,0 STARLINK-3610,1 51812U 22017AW  22311.68029284  .00000537  00000-0  51877-4 0  9994,2 51812  53.2192  36.9716 0001633  61.2420 298.8736 15.08817182 40313,6917.95,95.439,540.945,538.685,0.0
51812.0,STARLINK-3610,PAYLOAD,2022-11-08 00:16:31,15.08851077,0.0002157,53.2202,35.4907,41.788,318.3276,0.0001689,2.402e-05,0.0,0 STARLINK-3610,1 51812U 22017AW  22312.01147452  .00002402  00000-0  16890-3 0  9998,2 51812  53.2202  35.4907 0002157  41.7880 318.3276 15.08851077 40369,6917.847,95.437,541.2040000000002,538.219,0.0
51812.0,STARLINK-3610,PAYLOAD,2022-11-08 09:48:50,15.08849241,0.0002201,53.2194,33.7051,40.7679,319.3477,0.00013459,1.855e-05,0.0,0 STARLINK-3610,1 51812U 22017AW  22312.40891439  .00001855  00000-0  13459-3 0  9991,2 51812  53.2194  33.7051 0002201  40.7679 319.3477 15.08849241 40314,6917.852,95.437,541.24,538.195,0.0
51812.0,STARLINK-3610,PAYLOAD,2022-11-09 01:42:39,15.08857233,0.0001385,53.2205,30.7291,48.2648,311.8463,0.00026519,3.937e-05,0.0,0 STARLINK-3610,1 51812U 22017AW  22313.07129524  .00003937  00000-0  26519-3 0  9998,2 51812  53.2205  30.7291 0001385  48.2648 311.8463 15.08857233 40526,6917.828,95.436,540.651,538.735,0.0
51812.0,STARLINK-3610,PAYLOAD,2022-11-09 09:39:37,15.08835245,0.0002076,53.2199,29.2446,39.372,320.7422,8.570299999999999e-05,1.076e-05,0.0,0 STARLINK-3610,1 51812U 22017AW  22313.40251518  .00001076  00000-0  85703-4 0  9997,2 51812  53.2199  29.2446 0002076  39.3720 320.7422 15.08835245 40571,6917.895,95.438,541.196,538.3240000000002,0.0
51812.0,STARLINK-3610,PAYLOAD,2022-11-09 12:50:23,15.08838571,0.0002245,53.2198,28.6501,37.3889,322.726,0.00010601,1.399e-05,0.0,0 STARLINK-3610,1 51812U 22017AW  22313.53499260  .00001399  00000-0  10601-3 0  9991,2 51812  53.2198  28.6501 0002245  37.3889 322.7260 15.08838571 40484,6917.885,95.438,541.303,538.197,0.0
51812.0,STARLINK-3610,PAYLOAD,2022-11-10 01:33:28,15.08850635,0.0002238,53.2198,26.2719,37.4234,322.6914,-0.00012182,-2.227e-05,0.0,0 STARLINK-3610,1 51812U 22017AW  22314.06491095 -.00002227  00000-0 -12182-3 0  9997,2 51812  53.2198  26.2719 0002238  37.4234 322.6914 15.08850635 40677,6917.848000000001,95.437,541.261,538.165,0.0
51812.0,STARLINK-3610,PAYLOAD,2022-11-10 11:05:47,15.08838849,0.0002168,53.2208,24.489,35.1371,324.9764,-0.00017962,-3.146e-05,0.0,0 STARLINK-3610,1 51812U 22017AW  22314.46235837 -.00003146  00000-0 -17962-3 0  9993,2 51812  53.2208  24.4890 0002168  35.1371 324.9764 15.08838849 40624,6917.884,95.438,541.249,538.249,0.0
51812.0,STARLINK-3610,PAYLOAD,2022-11-11 01:24:16,15.08824471,0.0002213,53.2201,21.8122,35.0533,325.0605,-0.00015624,-2.773e-05,0.0,0 STARLINK-3610,1 51812U 22017AW  22315.05852651 -.00002773  00000-0 -15624-3 0  9996,2 51812  53.2201  21.8122 0002213  35.0533 325.0605 15.08824471 40820,6917.928000000001,95.439,541.3240000000002,538.262,0.0
51812.0,STARLINK-3610,PAYLOAD,2022-11-11 10:56:35,15.08823424,0.0002092,53.2207,20.0279,35.1827,324.9303,-0.0001476,-2.635e-05,0.0,0 STARLINK-3610,1 51812U 22017AW  22315.45597100 -.00002635  00000-0 -14760-3 0  9992,2 51812  53.2207  20.0279 0002092  35.1827 324.9303 15.08823424 40776,6917.931,95.439,541.243,538.349,0.0
51812.0,STARLINK-3610,PAYLOAD,2022-11-12 10:47:21,15.08848583,0.0002304,53.2197,15.5671,36.0844,324.0303,5.4183e-05,5.74e-06,0.0,0 STARLINK-3610,1 51812U 22017AW  22316.44955585  .00000574  00000-0  54183-4 0  9999,2 51812  53.2197  15.5671 0002304  36.0844 324.0303 15.08848583 41038,6917.854,95.437,541.313,538.125,0.0
51812.0,STARLINK-3610,PAYLOAD,2022-11-12 13:58:07,15.08842301,0.0002223,53.2196,14.9719,38.5641,321.551,0.00019138,2.759e-05,0.0,0 STARLINK-3610,1 51812U 22017AW  22316.58203575  .00002759  00000-0  19138-3 0  9996,2 51812  53.2196  14.9719 0002223  38.5641 321.5510 15.08842301 40948,6917.873000000001,95.437,541.276,538.201,0.0
